TYVAK-182A              
1 48271U 21034D   26068.71131789  .00007163  00000+0  50673-3 0  9991
2 48271  97.5843 129.3711 0004862 316.5650  43.5193 15.05150420264864
STARLINK-35268          
1 65810U 25218V   26068.63091651  .00004261  00000+0  29931-3 0  9990
2 65810  97.6029 292.9394 0002163  74.6897 285.4569 15.05655017 24961
